NORAD_CAT_ID,OBJECT_NAME,OBJECT_TYPE,EPOCH,MEAN_MOTION,ECCENTRICITY,INCLINATION,RA_OF_ASC_NODE,ARG_OF_PERICENTER,MEAN_ANOMALY,BSTAR,MEAN_MOTION_DOT,MEAN_MOTION_DDOT,TLE_LINE0,TLE_LINE1,TLE_LINE2,SEMIMAJOR_AXIS,PERIOD,APOGEE,PERIGEE,DECAYED
52454.0,STARLINK-3888,PAYLOAD,2024-02-09 19:05:52,15.08843057,0.0001436,53.2172,235.9292,88.0908,272.0248,9.995e-05,1.303e-05,0.0,0 STARLINK-3888,1 52454U 22049D   24040.79574513  .00001303  00000-0  99950-4 0  9991,2 52454  53.2172 235.9292 0001436  88.0908 272.0248 15.08843057 97700,6917.871,95.437,540.729,538.743,0.0
52454.0,STARLINK-3888,PAYLOAD,2024-02-09 20:41:15,15.08844412,0.0001335,53.2164,235.6315,87.529,272.5855,0.0001034,1.358e-05,0.0,0 STARLINK-3888,1 52454U 22049D   24040.86198385  .00001358  00000-0  10340-3 0  9993,2 52454  53.2164 235.6315 0001335  87.5290 272.5855 15.08844412 97558,6917.867,95.437,540.655,538.808,0.0
52454.0,STARLINK-3888,PAYLOAD,2024-02-10 22:07:25,15.08846199,0.0001332,53.2161,230.8728,79.324,280.7902,0.00013186,1.812e-05,0.0,0 STARLINK-3888,1 52454U 22049D   24041.92182228  .00001812  00000-0  13186-3 0  9996,2 52454  53.2161 230.8728 0001332  79.3240 280.7902 15.08846199 97717,6917.861,95.437,540.648,538.805,0.0
52454.0,STARLINK-3888,PAYLOAD,2024-02-11 18:47:28,15.0881574,0.0001341,53.215,227.0075,71.0293,289.0845,-0.00020614,-3.565e-05,0.0,0 STARLINK-3888,1 52454U 22049D   24042.78297418 -.00003565  00000-0 -20614-3 0  9992,2 52454  53.2150 227.0075 0001341  71.0293 289.0845 15.08815740 98004,6917.955,95.439,540.747,538.892,0.0
52454.0,STARLINK-3888,PAYLOAD,2024-02-12 18:38:13,15.08844228,0.0001273,53.2146,222.5342,105.7909,254.3223,0.00021197,3.088e-05,0.0,0 STARLINK-3888,1 52454U 22049D   24043.77654748  .00003088  00000-0  21197-3 0  9990,2 52454  53.2146 222.5342 0001273 105.7909 254.3223 15.08844228 98153,6917.867,95.437,540.613,538.852,0.0
52454.0,STARLINK-3888,PAYLOAD,2024-02-13 12:07:28,15.08828584,0.0001494,53.2168,219.2727,64.1921,295.9225,0.00038837,5.896e-05,0.0,0 STARLINK-3888,1 52454U 22049D   24044.50519270  .00005896  00000-0  38837-3 0  9990,2 52454  53.2168 219.2727 0001494  64.1921 295.9225 15.08828584 98266,6917.915,95.438,540.814,538.747,0.0
52454.0,STARLINK-3888,PAYLOAD,2024-02-13 18:29:00,15.08838706,0.0001432,53.2169,218.0883,83.1076,277.0079,0.00039213,5.958e-05,0.0,0 STARLINK-3888,1 52454U 22049D   24044.77014918  .00005958  00000-0  39213-3 0  9996,2 52454  53.2169 218.0883 0001432  83.1076 277.0079 15.08838706 98143,6917.884,95.438,540.74,538.759,0.0
52454.0,STARLINK-3888,PAYLOAD,2024-02-14 15:09:02,15.08846135,0.0001444,53.2174,214.2221,83.5499,276.5657,-1.5649e-05,-5.37e-06,0.0,0 STARLINK-3888,1 52454U 22049D   24045.63127599 -.00000537  00000-0 -15649-4 0  9990,2 52454  53.2174 214.2221 0001444  83.5499 276.5657 15.08846135 98274,6917.862,95.437,540.726,538.728,0.0
52454.0,STARLINK-3888,PAYLOAD,2024-02-14 18:19:47,15.08860861,0.0001303,53.2164,213.6246,77.2044,282.9093,0.00010682,1.413e-05,0.0,0 STARLINK-3888,1 52454U 22049D   24045.76374210  .00001413  00000-0  10682-3 0  9991,2 52454  53.2164 213.6246 0001303  77.2044 282.9093 15.08860861 98450,6917.817,95.436,540.583,538.78,0.0
52454.0,STARLINK-3888,PAYLOAD,2024-02-14 21:30:33,15.08862,0.0001375,53.2169,213.0305,79.7649,280.3499,0.00012076,1.636e-05,0.0,0 STARLINK-3888,1 52454U 22049D   24045.89621971  .00001636  00000-0  12076-3 0  9990,2 52454  53.2169 213.0305 0001375  79.7649 280.3499 15.08862000 98316,6917.813,95.436,540.629,538.727,0.0
52454.0,STARLINK-3888,PAYLOAD,2024-02-15 03:52:07,15.08837157,0.0001972,53.2161,211.8414,81.0444,279.0772,-6.7504e-05,-1.362e-05,0.0,0 STARLINK-3888,1 52454U 22049D   24046.16120144 -.00001362  00000-0 -67504-4 0  9992,2 52454  53.2161 211.8414 0001972  81.0444 279.0772 15.08837157 98513,6917.889,95.438,541.118,538.39,0.0
52454.0,STARLINK-3888,PAYLOAD,2024-02-15 19:45:58,15.08842065,0.0001467,53.2165,208.8679,79.0183,281.0974,-7.6671e-05,-1.508e-05,0.0,0 STARLINK-3888,1 52454U 22049D   24046.82359716 -.00001508  00000-0 -76671-4 0  9991,2 52454  53.2165 208.8679 0001467  79.0183 281.0974 15.08842065 98456,6917.874,95.437,540.754,538.724,0.0
52454.0,STARLINK-3888,PAYLOAD,2024-02-16 03:42:54,15.08846692,0.0001505,53.2174,207.3808,82.0461,278.0702,-7.5209e-05,-1.485e-05,0.0,0 STARLINK-3888,1 52454U 22049D   24047.15479316 -.00001485  00000-0 -75209-4 0  9997,2 52454  53.2174 207.3808 0001505  82.0461 278.0702 15.08846692 98668,6917.86,95.437,540.766,538.684,0.0
52454.0,STARLINK-3888,PAYLOAD,2024-02-16 14:50:35,15.08844231,0.0001343,53.2167,205.2996,85.8425,274.2721,0.00012857,1.759e-05,0.0,0 STARLINK-3888,1 52454U 22049D   24047.61846945  .00001759  00000-0  12857-3 0  9995,2 52454  53.2167 205.2996 0001343  85.8425 274.2721 15.08844231 98572,6917.867,95.437,540.662,538.803,0.0
52454.0,STARLINK-3888,PAYLOAD,2024-02-16 19:36:44,15.08859792,0.0001276,53.2167,204.4057,82.4841,277.6296,8.162e-05,1.012e-05,0.0,0 STARLINK-3888,1 52454U 22049D   24047.81718072  .00001012  00000-0  81620-4 0  9993,2 52454  53.2167 204.4057 0001276  82.4841 277.6296 15.08859792 98764,6917.82,95.436,540.568,538.802,0.0
52454.0,STARLINK-3888,PAYLOAD,2024-02-17 03:33:41,15.08838509,0.0001453,53.2162,202.9195,77.2393,282.8762,-6.75e-05,-1.362e-05,0.0,0 STARLINK-3888,1 52454U 22049D   24048.14839299 -.00001362  00000-0 -67500-4 0  9996,2 52454  53.2162 202.9195 0001453  77.2393 282.8762 15.08838509 98811,6917.885,95.438,540.755,538.745,0.0
52454.0,STARLINK-3888,PAYLOAD,2024-02-17 14:41:23,15.08833898,0.0001738,53.2167,200.8355,82.8618,277.2572,9.5528e-05,1.232e-05,0.0,0 STARLINK-3888,1 52454U 22049D   24048.61207853  .00001232  00000-0  95528-4 0  9998,2 52454  53.2167 200.8355 0001738  82.8618 277.2572 15.08833898 98722,6917.899,95.438,540.966,538.562,0.0
52454.0,STARLINK-3888,PAYLOAD,2024-02-17 16:16:46,15.08831587,0.0001303,53.2159,200.5402,81.2463,278.8677,8.1593e-05,1.011e-05,0.0,0 STARLINK-3888,1 52454U 22049D   24048.67831985  .00001011  00000-0  81593-4 0  9995,2 52454  53.2159 200.5402 0001303  81.2463 278.8677 15.08831587 98896,6917.906,95.438,540.673,538.87,0.0
52454.0,STARLINK-3888,PAYLOAD,2024-02-18 14:32:10,15.08846644,0.0001385,53.2153,196.3767,80.0715,280.0434,0.00014896,2.084e-05,0.0,0 STARLINK-3888,1 52454U 22049D   24049.60567324  .00002084  00000-0  14896-3 0  9994,2 52454  53.2153 196.3767 0001385  80.0715 280.0434 15.08846644 98877,6917.86,95.437,540.683,538.767,0.0
52454.0,STARLINK-3888,PAYLOAD,2024-02-18 16:07:33,15.0884856,0.0001261,53.2149,196.0782,82.3094,277.8041,0.00019736,2.855e-05,0.0,0 STARLINK-3888,1 52454U 22049D   24049.67191180  .00002855  00000-0  19736-3 0  9998,2 52454  53.2149 196.0782 0001261  82.3094 277.8041 15.08848560 99041,6917.854,95.437,540.592,538.847,0.0
52454.0,STARLINK-3888,PAYLOAD,2024-02-19 14:22:57,15.08838031,0.0001534,53.2157,191.9148,102.5817,257.5347,0.00013968,1.936e-05,0.0,0 STARLINK-3888,1 52454U 22049D   24050.59927847  .00001936  00000-0  13968-3 0  9998,2 52454  53.2157 191.9148 0001534 102.5817 257.5347 15.08838031 99025,6917.886,95.438,540.813,538.69,0.0
52454.0,STARLINK-3888,PAYLOAD,2024-02-19 15:58:20,15.08836765,0.0001403,53.2152,191.6191,85.5786,274.5366,0.00013247,1.821e-05,0.0,0 STARLINK-3888,1 52454U 22049D   24050.66552005  .00001821  00000-0  13247-3 0  9999,2 52454  53.2152 191.6191 0001403  85.5786 274.5366 15.08836765 99195,6917.89,95.438,540.726,538.785,0.0
52454.0,STARLINK-3888,PAYLOAD,2024-02-20 14:13:44,15.08842914,0.000147,53.2166,187.4569,86.771,273.345,9.2305e-05,1.181e-05,0.0,0 STARLINK-3888,1 52454U 22049D   24051.59287773  .00001181  00000-0  92305-4 0  9991,2 52454  53.2166 187.4569 0001470  86.7710 273.3450 15.08842914 99178,6917.871,95.437,540.753,538.72,0.0
52454.0,STARLINK-3888,PAYLOAD,2024-02-20 18:59:53,15.08846893,0.0001457,53.2166,186.5652,86.6802,273.4356,0.0002027,2.94e-05,0.0,0 STARLINK-3888,1 52454U 22049D   24051.79159650  .00002940  00000-0  20270-3 0  9990,2 52454  53.2166 186.5652 0001457  86.6802 273.4356 15.08846893 99364,6917.859,95.437,540.732,538.716,0.0
52454.0,STARLINK-3888,PAYLOAD,2024-02-21 12:29:08,15.08839809,0.0001406,53.2157,183.2895,84.6631,275.4521,0.0001277,1.745e-05,0.0,0 STARLINK-3888,1 52454U 22049D   24052.52023938  .00001745  00000-0  12770-3 0  9999,2 52454  53.2157 183.2895 0001406  84.6631 275.4521 15.08839809 99476,6917.881,95.438,540.719,538.773,0.0
52454.0,STARLINK-3888,PAYLOAD,2024-02-21 14:04:31,15.08839764,0.0001631,53.217,182.9943,94.895,265.2228,0.00016491,2.337e-05,0.0,0 STARLINK-3888,1 52454U 22049D   24052.58647892  .00002337  00000-0  16491-3 0  9998,2 52454  53.2170 182.9943 0001631  94.8950 265.2228 15.08839764 99323,6917.881,95.438,540.874,538.618,0.0
52454.0,STARLINK-3888,PAYLOAD,2024-02-21 15:39:54,15.0884467,0.0001416,53.2164,182.7003,87.6493,272.4661,0.00023224,3.411e-05,0.0,0 STARLINK-3888,1 52454U 22049D   24052.65271691  .00003411  00000-0  23224-3 0  9992,2 52454  53.2164 182.7003 0001416  87.6493 272.4661 15.08844670 99338,6917.866,95.437,540.711,538.752,0.0
52454.0,STARLINK-3888,PAYLOAD,2024-02-22 15:30:42,15.08834587,0.0001434,53.2167,178.2416,93.0515,267.0641,-8.1412e-05,-1.583e-05,0.0,0 STARLINK-3888,1 52454U 22049D   24053.64632225 -.00001583  00000-0 -81412-4 0  9990,2 52454  53.2167 178.2416 0001434  93.0515 267.0641 15.08834587 99485,6917.897,95.438,540.754,538.77,0.0
52454.0,STARLINK-3888,PAYLOAD,2024-02-23 13:46:06,15.08845142,0.0001391,53.2172,174.0779,94.325,265.7901,-4.6067e-05,-1.021e-05,0.0,0 STARLINK-3888,1 52454U 22049D   24054.57368504 -.00001021  00000-0 -46067-4 0  9993,2 52454  53.2172 174.0779 0001391  94.3250 265.7901 15.08845142 99628,6917.865,95.437,540.692,538.767,0.0
52454.0,STARLINK-3888,PAYLOAD,2024-02-23 16:56:52,15.08846045,0.0001401,53.2172,173.4826,94.1413,265.9739,7.058e-05,8.36e-06,0.0,0 STARLINK-3888,1 52454U 22049D   24054.70616143  .00000836  00000-0  70580-4 0  9991,2 52454  53.2172 173.4826 0001401  94.1413 265.9739 15.08846045 99809,6917.862,95.437,540.696,538.758,0.0
